STARLINK-34401          
1 64757U 25147C   26199.45683814  .00016461  00000+0  49728-3 0  9994
2 64757  53.1588 353.1679 0001386 104.4993 255.6164 15.34397100 58738
STARLINK-34593          
1 64758U 25147D   26199.81398769  .00010571  00000+0  32356-3 0  9992
2 64758  53.1622 351.1286 0001283 101.4427 258.6720 15.34400784 58863
STARLINK-34598          
1 64759U 25147E   26199.80567135  .00015557  00000+0  47034-3 0  9995
2 64759  53.1614 351.7855 0000995  86.5617 273.5500 15.34418079 58808
STARLINK-34235          
1 64760U 25147F   26199.80776616  .00014146  00000+0  42898-3 0  9999
2 64760  53.1622 351.8021 0001095  89.5333 270.5795 15.34402574 58890
STARLINK-34635          
1 64761U 25147G   26199.86238051  .00018080  00000+0  54490-3 0  9994
2 64761  53.1608 351.4324 0001048  88.9365 271.1757 15.34402769 58861
STARLINK-34638          
1 64762U 25147H   26199.69633985  .00020270  00000+0  60938-3 0  9999
2 64762  53.1611 351.8205 0000964  82.7231 277.3882 15.34402906 58846
STARLINK-34534          
1 64763U 25147J   26199.85186197  .00013183  00000+0  40060-3 0  9995
2 64763  53.1595 351.3657 0001059  68.7504 291.3612 15.34400476 58866
STARLINK-34261          
1 64764U 25147K   26199.82030101  .00013026  00000+0  39594-3 0  9992
2 64764  53.1620 351.1686 0001058  82.0089 278.1034 15.34402607 58906
STARLINK-34566          
1 64765U 25147L   26199.83713486  .00017010  00000+0  51331-3 0  9998
2 64765  53.1599 351.2717 0001061  90.5842 269.5282 15.34406416 58869
STARLINK-34645          
1 64766U 25147M   26199.82068091  .00013101  00000+0  45363-3 0  9998
2 64766  53.1633 354.0071 0001629  53.6991 306.4160 15.30202648 58827
STARLINK-34639          
1 64767U 25147N   26199.77830813  .00015181  00000+0  45946-3 0  9999
2 64767  53.1618 351.6115 0001259  91.6052 268.5095 15.34404109 58805
STARLINK-34609          
1 64768U 25147P   26199.79133628  .00017994  00000+0  54242-3 0  9995
2 64768  53.1617 343.1788 0001154  84.2500 275.8634 15.34400190 58971
STARLINK-34246          
1 64769U 25147Q   26199.83082192  .00019446  00000+0  58501-3 0  9996
2 64769  53.1606 351.2360 0000991  78.8429 281.2685 15.34409129 58869
STARLINK-34618          
1 64770U 25147R   26199.74674754  .00004511  00000+0  14458-3 0  9999
2 64770  53.1618 351.4197 0000992  90.5196 269.5921 15.34395418 58785
STARLINK-34541          
1 64771U 25147S   26199.69844413  .00017885  00000+0  53914-3 0  9993
2 64771  53.1618 351.8288 0000948  82.8051 277.3060 15.34402794 58772
STARLINK-34652          
1 64772U 25147T   26199.70476026  .00017055  00000+0  51471-3 0  9992
2 64772  53.1607 351.8685 0001913  94.2452 265.8769 15.34403354 58846
STARLINK-34612          
1 64773U 25147U   26199.69213275  .00011494  00000+0  35072-3 0  9996
2 64773  53.1594 351.7870 0001862  94.1512 265.9703 15.34405568 58844
STARLINK-34621          
1 64774U 25147V   26199.81434914  .00007591  00000+0  26820-3 0  9990
2 64774  53.1615 353.9677 0001222  72.4543 287.6591 15.30194517 58752
STARLINK-34657          
1 64775U 25147W   26199.84554926  .00012089  00000+0  36833-3 0  9993
2 64775  53.1612 351.3223 0000950  92.5465 267.5647 15.34401943 58861
STARLINK-34637          
1 64776U 25147X   26199.85817551  .00012678  00000+0  38569-3 0  9993
2 64776  53.1604 351.4002 0001067  85.5759 274.5366 15.34401276 58794
STARLINK-34547          
1 64777U 25147Y   26199.68792485  .00015493  00000+0  46873-3 0  9998
2 64777  53.1608 351.7601 0001179  91.6009 268.5129 15.34399334 58787
STARLINK-34537          
1 64778U 25147Z   26199.73797165  .00008763  00000+0  30767-3 0  9992
2 64778  53.1594 331.1635 0002616  62.0819 298.0446 15.30196356 59167
STARLINK-34585          
1 64779U 25147AA  26199.85606769  .00020730  00000+0  62296-3 0  9995
2 64779  53.1594 351.3869 0001105  86.7532 273.3597 15.34400312 58816
STARLINK-34491          
1 64780U 25147AB  26199.68582309  .00013502  00000+0  41005-3 0  9995
2 64780  53.1613 351.7452 0001766  89.4976 270.6229 15.34397330 58847
STARLINK-34582          
1 64781U 25147AC  26199.80978087  .00017994  00000+0  54243-3 0  9999
2 64781  53.1613 351.0955 0001024  91.1169 268.9951 15.34398575 58798
STARLINK-34482          
1 64782U 25147AD  26199.71948718  .00001586  00000+0  58071-4 0  9992
2 64782  53.1624 351.9523 0001234  70.6668 289.4468 15.34398783 58882
DROR 1                  
1 64784U 25148A   26199.79072490 -.00000041  00000+0  00000+0 0  9998
2 64784   0.0400 238.7118 0002009 162.2390 176.3054  1.00272819  3615
STARLINK-34629          
1 64790U 25150A   26199.89977735  .00008502  00000+0  71886-3 0  9998
2 64790  70.0001 163.5166 0003713 258.4427 101.6315 14.98359471 56177
STARLINK-34697          
1 64791U 25150B   26199.63676679  .00002493  00000+0  21664-3 0  9996
2 64791  70.0010 164.1997 0003343 261.0197  99.0584 14.98333919 56133
STARLINK-34632          
1 64792U 25150C   26199.32813728 -.00002522  00000+0 -20365-3 0  9993
2 64792  70.0011 165.0103 0003143 265.6438  94.4362 14.98325723 56081
