OBJECT_NAME,OBJECT_ID,EPOCH,MEAN_MOTION,ECCENTRICITY,INCLINATION,RA_OF_ASC_NODE,ARG_OF_PERICENTER,MEAN_ANOMALY,EPHEMERIS_TYPE,CLASSIFICATION_TYPE,NORAD_CAT_ID,ELEMENT_SET_NO,REV_AT_EPOCH,BSTAR,MEAN_MOTION_DOT,MEAN_MOTION_DDOT
STARLINK-34401,2025-147C,2026-07-18T10:57:50.815296,15.34397100,.0001386,53.1588,353.1679,104.4993,255.6164,0,U,64757,999,5873,.49728039E-3,.16461E-3,0
STARLINK-34593,2025-147D,2026-07-18T19:32:08.536416,15.34400784,.00012835,53.1622,351.1286,101.4427,258.6720,0,U,64758,999,5886,.32356128E-3,.10571E-3,0
STARLINK-34598,2025-147E,2026-07-18T19:20:10.004640,15.34418079,.00009956,53.1614,351.7855,86.5617,273.5500,0,U,64759,999,5880,.47034282E-3,.15557E-3,0
STARLINK-34235,2025-147F,2026-07-18T19:23:10.996224,15.34402574,.00010952,53.1622,351.8021,89.5333,270.5795,0,U,64760,999,5889,.42897947E-3,.14146E-3,0
STARLINK-34635,2025-147G,2026-07-18T20:41:49.676064,15.34402769,.00010486,53.1608,351.4324,88.9365,271.1757,0,U,64761,999,5886,.54490404E-3,.1808E-3,0
STARLINK-34638,2025-147H,2026-07-18T16:42:43.763040,15.34402906,.00009649,53.1611,351.8205,82.7231,277.3882,0,U,64762,999,5884,.60938398E-3,.2027E-3,0
STARLINK-34534,2025-147J,2026-07-18T20:26:40.874208,15.34400476,.00010599,53.1595,351.3657,68.7504,291.3612,0,U,64763,999,5886,.4005965E-3,.13183E-3,0
STARLINK-34261,2025-147K,2026-07-18T19:41:14.007264,15.34402607,.0001058,53.1620,351.1686,82.0089,278.1034,0,U,64764,999,5890,.3959408E-3,.13026E-3,0
STARLINK-34566,2025-147L,2026-07-18T20:05:28.451904,15.34406416,.00010619,53.1599,351.2717,90.5842,269.5282,0,U,64765,999,5886,.51330551E-3,.1701E-3,0
STARLINK-34645,2025-147M,2026-07-18T19:41:46.830624,15.30202648,.00016295,53.1633,354.0071,53.6991,306.4160,0,U,64766,999,5882,.45362935E-3,.13101E-3,0
STARLINK-34639,2025-147N,2026-07-18T18:40:45.822432,15.34404109,.00012597,53.1618,351.6115,91.6052,268.5095,0,U,64767,999,5880,.45945561E-3,.15181E-3,0
STARLINK-34609,2025-147P,2026-07-18T18:59:31.454592,15.34400190,.00011542,53.1617,343.1788,84.2500,275.8634,0,U,64768,999,5897,.54241672E-3,.17994E-3,0
STARLINK-34246,2025-147Q,2026-07-18T19:56:23.013888,15.34409129,.00009913,53.1606,351.2360,78.8429,281.2685,0,U,64769,999,5886,.58501267E-3,.19446E-3,0
STARLINK-34618,2025-147R,2026-07-18T17:55:18.987456,15.34395418,.00009927,53.1618,351.4197,90.5196,269.5921,0,U,64770,999,5878,.14458025E-3,.4511E-4,0
STARLINK-34541,2025-147S,2026-07-18T16:45:45.572832,15.34402794,.00009486,53.1618,351.8288,82.8051,277.3060,0,U,64771,999,5877,.5391404E-3,.17885E-3,0
STARLINK-34652,2025-147T,2026-07-18T16:54:51.286464,15.34403354,.00019133,53.1607,351.8685,94.2452,265.8769,0,U,64772,999,5884,.51470691E-3,.17055E-3,0
STARLINK-34612,2025-147U,2026-07-18T16:36:40.269600,15.34405568,.00018625,53.1594,351.7870,94.1512,265.9703,0,U,64773,999,5884,.35071971E-3,.11494E-3,0
STARLINK-34621,2025-147V,2026-07-18T19:32:39.765696,15.30194517,.00012229,53.1615,353.9677,72.4543,287.6591,0,U,64774,999,5875,.26820054E-3,.7591E-4,0
STARLINK-34657,2025-147W,2026-07-18T20:17:35.456064,15.34401943,.00009506,53.1612,351.3223,92.5465,267.5647,0,U,64775,999,5886,.36832587E-3,.12089E-3,0
STARLINK-34637,2025-147X,2026-07-18T20:35:46.364064,15.34401276,.00010677,53.1604,351.4002,85.5759,274.5366,0,U,64776,999,5879,.38569329E-3,.12678E-3,0
STARLINK-34547,2025-147Y,2026-07-18T16:30:36.707040,15.34399334,.00011795,53.1608,351.7601,91.6009,268.5129,0,U,64777,999,5878,.46872551E-3,.15493E-3,0
STARLINK-34537,2025-147Z,2026-07-18T17:42:40.750560,15.30196356,.00026169,53.1594,331.1635,62.0819,298.0446,0,U,64778,999,5916,.30767384E-3,.8763E-4,0
STARLINK-34585,2025-147AA,2026-07-18T20:32:44.248416,15.34400312,.00011059,53.1594,351.3869,86.7532,273.3597,0,U,64779,999,5881,.62295519E-3,.2073E-3,0
STARLINK-34491,2025-147AB,2026-07-18T16:27:35.114976,15.34397330,.00017666,53.1613,351.7452,89.4976,270.6229,0,U,64780,999,5884,.41004654E-3,.13502E-3,0
STARLINK-34582,2025-147AC,2026-07-18T19:26:05.067168,15.34398575,.00010242,53.1613,351.0955,91.1169,268.9951,0,U,64781,999,5879,.54243462E-3,.17994E-3,0
STARLINK-34482,2025-147AD,2026-07-18T17:16:03.692352,15.34398783,.00012345,53.1624,351.9523,70.6668,289.4468,0,U,64782,999,5888,.5807076E-4,.1586E-4,0
DROR 1,2025-148A,2026-07-18T18:58:38.631360,1.00272819,.00020094,0.0400,238.7118,162.2390,176.3054,0,U,64784,999,361,0,-.41E-6,0
STARLINK-34629,2025-150A,2026-07-18T21:35:40.763040,14.98359471,.00037139,70.0001,163.5166,258.4427,101.6315,0,U,64790,999,5617,.7188647E-3,.8502E-4,0
STARLINK-34697,2025-150B,2026-07-18T15:16:56.650656,14.98333919,.00033435,70.0010,164.1997,261.0197,99.0584,0,U,64791,999,5613,.2166429E-3,.2493E-4,0
STARLINK-34632,2025-150C,2026-07-18T07:52:31.060992,14.98325723,.00031439,70.0011,165.0103,265.6438,94.4362,0,U,64792,999,5608,-.20364957E-3,-.2522E-4,0
